[{"OBJECT_NAME":"ONEWEB-0275","OBJECT_ID":"2021-060AC","EPOCH":"2026-05-15T05:55:17.393376","MEAN_MOTION":13.16593456,"ECCENTRICITY":0.0002029,"INCLINATION":87.9104,"RA_OF_ASC_NODE":235.3152,"ARG_OF_PERICENTER":98.4586,"MEAN_ANOMALY":261.6775,"EPHEMERIS_TYPE":0,"CLASSIFICATION_TYPE":"U","NORAD_CAT_ID":48993,"ELEMENT_SET_NO":999,"REV_AT_EPOCH":23522,"BSTAR":-0.00055749,"MEAN_MOTION_DOT":-2e-06,"MEAN_MOTION_DDOT":0.0},{"OBJECT_NAME":"ONEWEB-0276","OBJECT_ID":"2021-060AD","EPOCH":"2026-05-15T06:43:10.926912","MEAN_MOTION":13.16596662,"ECCENTRICITY":0.0002152,"INCLINATION":87.9105,"RA_OF_ASC_NODE":235.309,"ARG_OF_PERICENTER":98.7544,"MEAN_ANOMALY":261.3831,"EPHEMERIS_TYPE":0,"CLASSIFICATION_TYPE":"U","NORAD_CAT_ID":48994,"ELEMENT_SET_NO":999,"REV_AT_EPOCH":23524,"BSTAR":0.00014714,"MEAN_MOTION_DOT":6.9e-07,"MEAN_MOTION_DDOT":0.0},{"OBJECT_NAME":"ONEWEB-0277","OBJECT_ID":"2021-060AE","EPOCH":"2026-05-15T07:01:26.048640","MEAN_MOTION":13.16595834,"ECCENTRICITY":0.0001871,"INCLINATION":87.9099,"RA_OF_ASC_NODE":235.317,"ARG_OF_PERICENTER":97.262,"MEAN_ANOMALY":262.8724,"EPHEMERIS_TYPE":0,"CLASSIFICATION_TYPE":"U","NORAD_CAT_ID":48995,"ELEMENT_SET_NO":999,"REV_AT_EPOCH":23523,"BSTAR":3.2482e-05,"MEAN_MOTION_DOT":2.5e-07,"MEAN_MOTION_DDOT":0.0},{"OBJECT_NAME":"ONEWEB-0278","OBJECT_ID":"2021-060AF","EPOCH":"2026-05-15T06:47:46.189536","MEAN_MOTION":13.16595013,"ECCENTRICITY":0.0001956,"INCLINATION":87.9107,"RA_OF_ASC_NODE":235.3066,"ARG_OF_PERICENTER":107.8643,"MEAN_ANOMALY":252.2702,"EPHEMERIS_TYPE":0,"CLASSIFICATION_TYPE":"U","NORAD_CAT_ID":48996,"ELEMENT_SET_NO":999,"REV_AT_EPOCH":23536,"BSTAR":9.4615e-06,"MEAN_MOTION_DOT":1.6e-07,"MEAN_MOTION_DDOT":0.0},{"OBJECT_NAME":"ONEWEB-0279","OBJECT_ID":"2021-060AG","EPOCH":"2026-05-15T06:59:08.009088","MEAN_MOTION":13.1659251,"ECCENTRICITY":0.0001997,"INCLINATION":87.9106,"RA_OF_ASC_NODE":235.3035,"ARG_OF_PERICENTER":93.1968,"MEAN_ANOMALY":266.9392,"EPHEMERIS_TYPE":0,"CLASSIFICATION_TYPE":"U","NORAD_CAT_ID":48997,"ELEMENT_SET_NO":999,"REV_AT_EPOCH":23529,"BSTAR":-0.00013682,"MEAN_MOTION_DOT":-3.9e-07,"MEAN_MOTION_DDOT":0.0},{"OBJECT_NAME":"ONEWEB-0280","OBJECT_ID":"2021-060AH","EPOCH":"2026-05-15T07:20:48.338592","MEAN_MOTION":13.16594881,"ECCENTRICITY":0.0001637,"INCLINATION":87.9101,"RA_OF_ASC_NODE":235.3046,"ARG_OF_PERICENTER":103.9191,"MEAN_ANOMALY":256.2122,"EPHEMERIS_TYPE":0,"CLASSIFICATION_TYPE":"U","NORAD_CAT_ID":48998,"ELEMENT_SET_NO":999,"REV_AT_EPOCH":23523,"BSTAR":-0.00012588,"MEAN_MOTION_DOT":-3.5e-07,"MEAN_MOTION_DDOT":0.0},{"OBJECT_NAME":"ONEWEB-0281","OBJECT_ID":"2021-060AJ","EPOCH":"2026-05-15T07:28:46.881408","MEAN_MOTION":13.16593006,"ECCENTRICITY":0.0002006,"INCLINATION":87.9104,"RA_OF_ASC_NODE":235.2981,"ARG_OF_PERICENTER":103.2569,"MEAN_ANOMALY":256.8785,"EPHEMERIS_TYPE":0,"CLASSIFICATION_TYPE":"U","NORAD_CAT_ID":48999,"ELEMENT_SET_NO":999,"REV_AT_EPOCH":23530,"BSTAR":-7.0437e-05,"MEAN_MOTION_DOT":-1.4e-07,"MEAN_MOTION_DDOT":0.0},{"OBJECT_NAME":"ONEWEB-0282","OBJECT_ID":"2021-060AK","EPOCH":"2026-05-15T06:22:41.460960","MEAN_MOTION":13.165948,"ECCENTRICITY":0.0001854,"INCLINATION":87.9097,"RA_OF_ASC_NODE":235.3168,"ARG_OF_PERICENTER":99.1756,"MEAN_ANOMALY":260.9585,"EPHEMERIS_TYPE":0,"CLASSIFICATION_TYPE":"U","NORAD_CAT_ID":49000,"ELEMENT_SET_NO":999,"REV_AT_EPOCH":23527,"BSTAR":0.00015129000000000002,"MEAN_MOTION_DOT":7.1e-07,"MEAN_MOTION_DDOT":0.0},{"OBJECT_NAME":"ONEWEB-0283","OBJECT_ID":"2021-060AL","EPOCH":"2026-05-15T06:06:42.234336","MEAN_MOTION":13.16595425,"ECCENTRICITY":0.0001981,"INCLINATION":87.9098,"RA_OF_ASC_NODE":235.3185,"ARG_OF_PERICENTER":96.4514,"MEAN_ANOMALY":263.6843,"EPHEMERIS_TYPE":0,"CLASSIFICATION_TYPE":"U","NORAD_CAT_ID":49001,"ELEMENT_SET_NO":999,"REV_AT_EPOCH":23528,"BSTAR":0.00017348,"MEAN_MOTION_DOT":7.9e-07,"MEAN_MOTION_DDOT":0.0},{"OBJECT_NAME":"ONEWEB-0284","OBJECT_ID":"2021-060AM","EPOCH":"2026-05-15T05:57:34.462656","MEAN_MOTION":13.1659586,"ECCENTRICITY":0.0001724,"INCLINATION":87.9103,"RA_OF_ASC_NODE":235.3124,"ARG_OF_PERICENTER":108.5505,"MEAN_ANOMALY":251.5813,"EPHEMERIS_TYPE":0,"CLASSIFICATION_TYPE":"U","NORAD_CAT_ID":49002,"ELEMENT_SET_NO":999,"REV_AT_EPOCH":23526,"BSTAR":0.00014055,"MEAN_MOTION_DOT":6.7e-07,"MEAN_MOTION_DDOT":0.0},{"OBJECT_NAME":"ONEWEB-0285","OBJECT_ID":"2021-075A","EPOCH":"2026-05-15T03:01:09.281568","MEAN_MOTION":13.12445812,"ECCENTRICITY":0.0001734,"INCLINATION":87.8969,"RA_OF_ASC_NODE":357.2351,"ARG_OF_PERICENTER":82.6838,"MEAN_ANOMALY":277.4488,"EPHEMERIS_TYPE":0,"CLASSIFICATION_TYPE":"U","NORAD_CAT_ID":49075,"ELEMENT_SET_NO":999,"REV_AT_EPOCH":23087,"BSTAR":0.00036661,"MEAN_MOTION_DOT":1.45e-06,"MEAN_MOTION_DDOT":0.0},{"OBJECT_NAME":"ONEWEB-0286","OBJECT_ID":"2021-075B","EPOCH":"2026-05-15T02:35:20.492448","MEAN_MOTION":13.1244447,"ECCENTRICITY":0.0001912,"INCLINATION":87.8958,"RA_OF_ASC_NODE":357.2588,"ARG_OF_PERICENTER":89.2153,"MEAN_ANOMALY":270.9195,"EPHEMERIS_TYPE":0,"CLASSIFICATION_TYPE":"U","NORAD_CAT_ID":49076,"ELEMENT_SET_NO":999,"REV_AT_EPOCH":23022,"BSTAR":-0.0008920400000000001,"MEAN_MOTION_DOT":-3.08e-06,"MEAN_MOTION_DDOT":0.0},{"OBJECT_NAME":"ONEWEB-0287","OBJECT_ID":"2021-075C","EPOCH":"2026-05-15T05:02:54.589920","MEAN_MOTION":13.17650535,"ECCENTRICITY":0.0001977,"INCLINATION":87.9164,"RA_OF_ASC_NODE":12.4225,"ARG_OF_PERICENTER":95.3661,"MEAN_ANOMALY":264.7696,"EPHEMERIS_TYPE":0,"CLASSIFICATION_TYPE":"U","NORAD_CAT_ID":49077,"ELEMENT_SET_NO":999,"REV_AT_EPOCH":22928,"BSTAR":4.907500000000001e-05,"MEAN_MOTION_DOT":3.2e-07,"MEAN_MOTION_DDOT":0.0},{"OBJECT_NAME":"ONEWEB-0288","OBJECT_ID":"2021-075D","EPOCH":"2026-05-15T03:51:10.325088","MEAN_MOTION":13.12442539,"ECCENTRICITY":0.0001718,"INCLINATION":87.8968,"RA_OF_ASC_NODE":357.2222,"ARG_OF_PERICENTER":91.531,"MEAN_ANOMALY":268.6015,"EPHEMERIS_TYPE":0,"CLASSIFICATION_TYPE":"U","NORAD_CAT_ID":49078,"ELEMENT_SET_NO":999,"REV_AT_EPOCH":23085,"BSTAR":0.00041193999999999996,"MEAN_MOTION_DOT":1.61e-06,"MEAN_MOTION_DDOT":0.0},{"OBJECT_NAME":"ONEWEB-0289","OBJECT_ID":"2021-075E","EPOCH":"2026-05-15T04:09:15.210144","MEAN_MOTION":13.17650464,"ECCENTRICITY":0.0001394,"INCLINATION":87.9168,"RA_OF_ASC_NODE":12.4452,"ARG_OF_PERICENTER":79.1873,"MEAN_ANOMALY":280.9415,"EPHEMERIS_TYPE":0,"CLASSIFICATION_TYPE":"U","NORAD_CAT_ID":49079,"ELEMENT_SET_NO":999,"REV_AT_EPOCH":22985,"BSTAR":0.00026468000000000005,"MEAN_MOTION_DOT":1.16e-06,"MEAN_MOTION_DDOT":0.0},{"OBJECT_NAME":"ONEWEB-0290","OBJECT_ID":"2021-075F","EPOCH":"2026-05-15T05:19:54.997248","MEAN_MOTION":13.17648663,"ECCENTRICITY":0.0001303,"INCLINATION":87.9172,"RA_OF_ASC_NODE":12.4061,"ARG_OF_PERICENTER":76.1669,"MEAN_ANOMALY":283.9607,"EPHEMERIS_TYPE":0,"CLASSIFICATION_TYPE":"U","NORAD_CAT_ID":49080,"ELEMENT_SET_NO":999,"REV_AT_EPOCH":22927,"BSTAR":0.00026745999999999996,"MEAN_MOTION_DOT":1.17e-06,"MEAN_MOTION_DDOT":0.0}]