ONEWEB-0275             
1 48993U 21060AC  26135.24672909 -.00000200  00000+0 -55749-3 0  9994
2 48993  87.9104 235.3152 0002029  98.4586 261.6775 13.16593456235229
ONEWEB-0276             
1 48994U 21060AD  26135.27998758  .00000069  00000+0  14714-3 0  9999
2 48994  87.9105 235.3090 0002152  98.7544 261.3831 13.16596662235240
ONEWEB-0277             
1 48995U 21060AE  26135.29266260  .00000025  00000+0  32482-4 0  9993
2 48995  87.9099 235.3170 0001871  97.2620 262.8724 13.16595834235234
ONEWEB-0278             
1 48996U 21060AF  26135.28317349  .00000016  00000+0  94615-5 0  9995
2 48996  87.9107 235.3066 0001956 107.8643 252.2702 13.16595013235368
ONEWEB-0279             
1 48997U 21060AG  26135.29106492 -.00000039  00000+0 -13682-3 0  9992
2 48997  87.9106 235.3035 0001997  93.1968 266.9392 13.16592510235294
ONEWEB-0280             
1 48998U 21060AH  26135.30611503 -.00000035  00000+0 -12588-3 0  9999
2 48998  87.9101 235.3046 0001637 103.9191 256.2122 13.16594881235231
ONEWEB-0281             
1 48999U 21060AJ  26135.31165372 -.00000014  00000+0 -70437-4 0  9994
2 48999  87.9104 235.2981 0002006 103.2569 256.8785 13.16593006235302
ONEWEB-0282             
1 49000U 21060AK  26135.26575765  .00000071  00000+0  15129-3 0  9990
2 49000  87.9097 235.3168 0001854  99.1756 260.9585 13.16594800235279
ONEWEB-0283             
1 49001U 21060AL  26135.25465549  .00000079  00000+0  17348-3 0  9991
2 49001  87.9098 235.3185 0001981  96.4514 263.6843 13.16595425235285
ONEWEB-0284             
1 49002U 21060AM  26135.24831554  .00000067  00000+0  14055-3 0  9993
2 49002  87.9103 235.3124 0001724 108.5505 251.5813 13.16595860235260
ONEWEB-0285             
1 49075U 21075A   26135.12580187  .00000145  00000+0  36661-3 0  9993
2 49075  87.8969 357.2351 0001734  82.6838 277.4488 13.12445812230871
ONEWEB-0286             
1 49076U 21075B   26135.10787607 -.00000308  00000+0 -89204-3 0  9992
2 49076  87.8958 357.2588 0001912  89.2153 270.9195 13.12444470230224
ONEWEB-0287             
1 49077U 21075C   26135.21035405  .00000032  00000+0  49075-4 0  9992
2 49077  87.9164  12.4225 0001977  95.3661 264.7696 13.17650535229283
ONEWEB-0288             
1 49078U 21075D   26135.16053617  .00000161  00000+0  41194-3 0  9998
2 49078  87.8968 357.2222 0001718  91.5310 268.6015 13.12442539230855
ONEWEB-0289             
1 49079U 21075E   26135.17309271  .00000116  00000+0  26468-3 0  9997
2 49079  87.9168  12.4452 0001394  79.1873 280.9415 13.17650464229852
ONEWEB-0290             
1 49080U 21075F   26135.22216432  .00000117  00000+0  26746-3 0  9991
2 49080  87.9172  12.4061 0001303  76.1669 283.9607 13.17648663229275
